ONEWEB-0018             
1 45434U 20020L   24297.84676173 -.00000098  00000+0 -31242-3 0  9993
2 45434  87.8907 140.8604 0001673  82.8248 277.3070 13.11417986223816
ONEWEB-0083             
1 45435U 20020M   24297.83658496 -.00000473  00000+0 -13714-2 0  9991
2 45435  87.8905 140.8442 0001550  82.1833 277.9471 13.11417363223856
ONEWEB-0095             
1 45436U 20020N   24298.13343079 -.00001470  00000+0 -41861-2 0  9996
2 45436  87.8902 140.8171 0000718  73.1078 287.0129 13.11404209223902
ONEWEB-0092             
1 45437U 20020P   24298.10048641 -.00023586  00000+0 -66959-1 0  9997
2 45437  87.8901 140.8078 0001587  78.0557 282.0749 13.11205955224001
ONEWEB-0085             
1 45438U 20020Q   24297.60091439 -.00000549  00000+0 -15863-2 0  9998
2 45438  87.8907 140.9156 0001646  86.2760 273.8557 13.11416742223821
ONEWEB-0096             
1 45439U 20020R   24297.83828249 -.00000407  00000+0 -11843-2 0  9998
2 45439  87.8906 140.8376 0001799  89.5492 270.5842 13.11417672223847
ONEWEB-0037             
1 45440U 20020S   24297.81961788 -.00000431  00000+0 -12529-2 0  9993
2 45440  87.8898 140.8178 0001464  85.0091 275.1204 13.11417127223875
ONEWEB-0042             
1 45441U 20020T   24297.82796385 -.00000554  00000+0 -15982-2 0  9996
2 45441  87.8902 140.8523 0001594  86.7888 273.3422 13.11416701223848
